OBJECT_NAME,OBJECT_ID,EPOCH,MEAN_MOTION,ECCENTRICITY,INCLINATION,RA_OF_ASC_NODE,ARG_OF_PERICENTER,MEAN_ANOMALY,EPHEMERIS_TYPE,CLASSIFICATION_TYPE,NORAD_CAT_ID,ELEMENT_SET_NO,REV_AT_EPOCH,BSTAR,MEAN_MOTION_DOT,MEAN_MOTION_DDOT
ONEWEB-0158,2021-025N,2026-07-12T08:14:04.647840,13.13468961,.00018906,87.8985,315.2133,103.8957,256.2382,0,U,48054,999,25693,.20522823E-2,.762E-5,0
ONEWEB-0157,2021-025P,2026-07-11T20:02:45.054816,13.13472044,.00022114,87.8979,315.3182,97.6047,262.5333,0,U,48055,999,25680,-.64167344E-3,-.222E-5,0
ONEWEB-0162,2021-025Q,2026-07-12T08:16:18.681888,13.13469252,.00020495,87.8989,315.2169,109.3645,250.7706,0,U,48056,999,25684,.26349486E-3,.109E-5,0
ONEWEB-0155,2021-025R,2026-07-12T06:36:34.640352,13.13473139,.00019728,87.8981,315.2275,97.9791,262.1562,0,U,48057,999,25697,-.41025292E-3,-.137E-5,0
ONEWEB-0149,2021-025S,2026-07-11T20:10:04.384992,13.13470216,.00019124,87.8982,315.3185,92.9829,267.1519,0,U,48058,999,25672,-.59221788E-3,-.204E-5,0
ONEWEB-0148,2021-025T,2026-07-11T19:16:26.645088,13.13469185,.00019912,87.8979,315.3315,93.0193,267.1164,0,U,48059,999,25684,.58979601E-3,.228E-5,0
ONEWEB-0160,2021-025U,2026-07-12T06:38:58.979328,13.13469099,.00013733,87.8982,315.2322,118.4741,241.6527,0,U,48060,999,25685,-.34873091E-3,-.115E-5,0
ONEWEB-0163,2021-025V,2026-07-11T19:18:52.857216,13.13468553,.00021968,87.8986,315.3230,99.3666,260.7712,0,U,48061,999,25691,.55429408E-3,.215E-5,0
ONEWEB-0159,2021-025W,2026-07-12T07:54:33.875136,13.13470046,.00022222,87.8987,315.2125,100.3453,259.7927,0,U,48062,999,25690,.10116592E-2,.382E-5,0
ONEWEB-0164,2021-025X,2026-07-11T18:39:52.471296,13.13469808,.00019135,87.8992,315.3295,103.4056,256.7286,0,U,48063,999,25681,.28657992E-3,.117E-5,0
ONEWEB-0167,2021-025Y,2026-07-11T19:20:06.501120,13.13469938,.00023005,87.8987,315.3283,115.2514,244.8854,0,U,48064,999,25680,.87786867E-3,.333E-5,0
ONEWEB-0166,2021-025Z,2026-07-11T19:53:00.392928,13.13469306,.00019935,87.8988,315.3004,97.4602,262.6754,0,U,48065,999,25688,-.10134935E-2,-.357E-5,0
ONEWEB-0151,2021-025AA,2026-07-11T19:55:25.844736,13.13470002,.00019348,87.8985,315.3150,103.5657,256.5687,0,U,48066,999,25682,-.84429275E-3,-.296E-5,0
ONEWEB-0170,2021-025AB,2026-07-11T20:07:37.047936,13.13469587,.00017565,87.8980,315.3152,115.3362,244.7949,0,U,48067,999,25678,-.68958577E-3,-.239E-5,0
ONEWEB-0168,2021-025AC,2026-07-12T06:43:51.559968,13.13468994,.00019949,87.8984,315.2282,101.6979,258.4374,0,U,48068,999,25685,-.48772535E-3,-.165E-5,0
ONEWEB-0173,2021-025AD,2026-07-12T06:31:40.636704,13.13469010,.00023971,87.8988,315.2298,110.0952,250.0435,0,U,48069,999,25709,-.11290157E-3,-.28E-6,0
ONEWEB-0171,2021-025AE,2026-07-11T20:27:07.780896,13.13470254,.00019645,87.8975,315.3210,101.2288,258.9062,0,U,48070,999,25685,.30453296E-3,.124E-5,0
ONEWEB-0172,2021-025AF,2026-07-11T19:57:52.304832,13.13470486,.00020618,87.8987,315.3169,102.7342,257.4018,0,U,48071,999,25774,-.91825023E-3,-.323E-5,0
ONEWEB-0174,2021-025AG,2026-07-11T19:31:04.194336,13.13468434,.00020033,87.8986,315.3195,94.7885,265.3472,0,U,48072,999,25706,-.26021134E-3,-.82E-6,0
ONEWEB-0175,2021-025AH,2026-07-11T20:14:56.426496,13.13469977,.00020447,87.8983,315.2986,108.7473,251.3878,0,U,48073,999,25672,-.43490806E-3,-.146E-5,0
ONEWEB-0177,2021-025AJ,2026-07-11T20:32:00.609504,13.13471064,.000206,87.8982,315.3141,95.3656,264.7708,0,U,48074,999,25691,.34338513E-3,.138E-5,0
ONEWEB-0178,2021-025AK,2026-07-11T19:09:20.100384,13.13470044,.00021597,87.8973,315.3354,103.7249,256.4121,0,U,48075,999,25695,.7118366E-3,.273E-5,0
ONEWEB-0108,2021-025AL,2026-07-12T06:58:29.246592,13.13469557,.00017427,87.8994,315.2189,96.5698,263.5629,0,U,48076,999,25694,-.86168334E-3,-.302E-5,0
ONEWEB-0169,2021-025AM,2026-07-11T20:46:38.382528,13.13469321,.00019941,87.8979,315.3104,94.2011,265.9346,0,U,48077,999,25554,.79934256E-3,.305E-5,0
ONEWEB-0176,2021-031A,2026-07-12T05:19:18.441408,13.14502958,.00021627,87.8967,284.7113,102.0496,258.0877,0,U,48210,999,25160,.26654333E-4,.23E-6,0
ONEWEB-0184,2021-031B,2026-07-12T04:40:29.354016,13.14502298,.00025023,87.8978,284.7185,117.1917,242.9468,0,U,48211,999,25157,-.3722753E-3,-.125E-5,0
ONEWEB-0179,2021-031C,2026-07-12T05:23:38.805216,14.25565472,.02212168,87.9019,280.9446,175.0241,185.3228,0,U,48212,999,25261,-.25855845E-3,-.769E-5,0
ONEWEB-0180,2021-031D,2026-07-12T04:45:03.675744,13.14502970,.00025287,87.8987,284.7147,102.0629,258.0784,0,U,48213,999,25150,-.44542461E-3,-.152E-5,0
ONEWEB-0218,2021-031E,2026-07-12T05:17:01.480992,13.14503818,.00027569,87.8979,284.7101,112.5752,247.5670,0,U,48214,999,25166,-.21679962E-3,-.68E-6,0
ONEWEB-0209,2021-031F,2026-07-11T18:03:23.566176,13.14503466,.0002275,87.8968,284.8177,96.5306,263.6083,0,U,48215,999,25160,-.4988083E-3,-.172E-5,0
